[{"OBJECT_NAME":"STARLINK-4102","OBJECT_ID":"2022-083M","EPOCH":"2026-03-09T13:48:26.876448","MEAN_MOTION":15.08835002,"ECCENTRICITY":0.0001384,"INCLINATION":53.2176,"RA_OF_ASC_NODE":174.6333,"ARG_OF_PERICENTER":99.2353,"MEAN_ANOMALY":260.8796,"EPHEMERIS_TYPE":0,"CLASSIFICATION_TYPE":"U","NORAD_CAT_ID":53143,"ELEMENT_SET_NO":999,"REV_AT_EPOCH":20120,"BSTAR":-2.9837e-5,"MEAN_MOTION_DOT":-7.63e-6,"MEAN_MOTION_DDOT":0},{"OBJECT_NAME":"ELECTRON KICK STAGE R\/B","OBJECT_ID":"2023-196B","EPOCH":"2026-03-09T10:54:03.246336","MEAN_MOTION":15.12760744,"ECCENTRICITY":0.00189263,"INCLINATION":42.0179,"RA_OF_ASC_NODE":242.1679,"ARG_OF_PERICENTER":295.0915,"MEAN_ANOMALY":64.7951,"EPHEMERIS_TYPE":0,"CLASSIFICATION_TYPE":"U","NORAD_CAT_ID":58579,"ELEMENT_SET_NO":999,"REV_AT_EPOCH":12282,"BSTAR":0.00048326039,"MEAN_MOTION_DOT":8.466e-5,"MEAN_MOTION_DDOT":0}]
